start=new Date('2022-09-15T00:00:00.000Z').valueOf();
sats=[{"TLE_LINE2":"2 45734  53.0537 186.2367 0001868  82.9052 277.2149 15.06920753124490","TIME_SYSTEM":"UTC","SEMIMAJOR_AXIS":"6923.753","OBJECT_ID":"2020-038E","APOAPSIS":"546.911","CENTER_NAME":"EARTH","MEAN_MOTION":"15.06920753","PERIOD":"95.559","MEAN_ANOMALY":"277.2149","NORAD_CAT_ID":"45734","LAUNCH_DATE":"2020-06-13","OBJECT_TYPE":"PAYLOAD","MEAN_MOTION_DDOT":"0.0000000000000","MEAN_MOTION_DOT":"0.00021949","BSTAR":"0.00146710000000","GP_ID":"212610146","PERIAPSIS":"544.325","TLE_LINE1":"1 45734U 20038E   22257.81899141  .00021949  00000-0  14671-2 0  9991","SITE":"AFETR","ECCENTRICITY":"0.00018680","INCLINATION":"53.0537","EPHEMERIS_TYPE":"0","COUNTRY_CODE":"US","CLASSIFICATION_TYPE":"U","EPOCH":"2022-09-14T19:39:20.857824","MEAN_ELEMENT_THEORY":"SGP4","FILE":"3574287","RCS_SIZE":"LARGE","REF_FRAME":"TEME","DECAY_DATE":null,"REV_AT_EPOCH":"12449","RA_OF_ASC_NODE":"186.2367","ARG_OF_PERICENTER":"82.9052","ELEMENT_SET_NO":"999","OBJECT_NAME":"STARLINK-1468"},{"TLE_LINE1":"1 45735U 20038F   22257.26248952 -.00000453  00000-0 -11500-4 0  9998","SITE":"AFETR","ECCENTRICITY":"0.00012480","INCLINATION":"53.0540","MEAN_MOTION_DDOT":"0.0000000000000","MEAN_MOTION_DOT":"-0.00000453","BSTAR":"-0.00001150000000","GP_ID":"212578239","PERIAPSIS":"546.369","REV_AT_EPOCH":"12440","ARG_OF_PERICENTER":"84.6268","RA_OF_ASC_NODE":"188.7776","ELEMENT_SET_NO":"999","OBJECT_NAME":"STARLINK-1471","EPHEMERIS_TYPE":"0","COUNTRY_CODE":"US","CLASSIFICATION_TYPE":"U","EPOCH":"2022-09-14T06:17:59.094528","FILE":"3574027","MEAN_ELEMENT_THEORY":"SGP4","RCS_SIZE":"LARGE","DECAY_DATE":null,"REF_FRAME":"TEME","TIME_SYSTEM":"UTC","TLE_LINE2":"2 45735  53.0540 188.7776 0001248  84.6268 275.4863 15.06393717124404","OBJECT_ID":"2020-038F","SEMIMAJOR_AXIS":"6925.368","MEAN_ANOMALY":"275.4863","NORAD_CAT_ID":"45735","LAUNCH_DATE":"2020-06-13","OBJECT_TYPE":"PAYLOAD","APOAPSIS":"548.097","CENTER_NAME":"EARTH","MEAN_MOTION":"15.06393717","PERIOD":"95.593"},{"ECCENTRICITY":"0.00018850","SITE":"AFETR","TLE_LINE1":"1 45736U 20038G   22257.41274237  .00013720  00000-0  35512-3 0  9998","INCLINATION":"53.0611","MEAN_MOTION_DDOT":"0.0000000000000","PERIAPSIS":"446.664","GP_ID":"212578989","BSTAR":"0.00035512000000","MEAN_MOTION_DOT":"0.00013720","REV_AT_EPOCH":"12512","RA_OF_ASC_NODE":"139.4751","ARG_OF_PERICENTER":"153.7184","OBJECT_NAME":"STARLINK-1472","ELEMENT_SET_NO":"999","CLASSIFICATION_TYPE":"U","COUNTRY_CODE":"US","EPHEMERIS_TYPE":"0","REF_FRAME":"TEME","DECAY_DATE":null,"RCS_SIZE":"LARGE","MEAN_ELEMENT_THEORY":"SGP4","FILE":"3574027","EPOCH":"2022-09-14T09:54:20.940768","TIME_SYSTEM":"UTC","TLE_LINE2":"2 45736  53.0611 139.4751 0001885 153.7184 206.3915 15.39377646125122","SEMIMAJOR_AXIS":"6826.086","OBJECT_ID":"2020-038G","MEAN_ANOMALY":"206.3915","OBJECT_TYPE":"PAYLOAD","LAUNCH_DATE":"2020-06-13","NORAD_CAT_ID":"45736","PERIOD":"93.544","MEAN_MOTION":"15.39377646","CENTER_NAME":"EARTH","APOAPSIS":"449.237"},{"ELEMENT_SET_NO":"999","OBJECT_NAME":"STARLINK-1474","REV_AT_EPOCH":"12441","RA_OF_ASC_NODE":"188.5295","ARG_OF_PERICENTER":"72.4443","FILE":"3574027","MEAN_ELEMENT_THEORY":"SGP4","EPOCH":"2022-09-14T07:37:35.983776","DECAY_DATE":null,"REF_FRAME":"TEME","RCS_SIZE":"LARGE","COUNTRY_CODE":"US","EPHEMERIS_TYPE":"0","CLASSIFICATION_TYPE":"U","INCLINATION":"53.0549","SITE":"AFETR","TLE_LINE1":"1 45738U 20038J   22257.31777759 -.00001118  00000-0 -56151-4 0  9999","ECCENTRICITY":"0.00013860","BSTAR":"-0.00005615100000","MEAN_MOTION_DOT":"-0.00001118","PERIAPSIS":"546.270","GP_ID":"212579240","MEAN_MOTION_DDOT":"0.0000000000000","LAUNCH_DATE":"2020-06-13","NORAD_CAT_ID":"45738","OBJECT_TYPE":"PAYLOAD","MEAN_ANOMALY":"287.6698","CENTER_NAME":"EARTH","APOAPSIS":"548.189","PERIOD":"95.592","MEAN_MOTION":"15.06394758","OBJECT_ID":"2020-038J","SEMIMAJOR_AXIS":"6925.365","TLE_LINE2":"2 45738  53.0549 188.5295 0001386  72.4443 287.6698 15.06394758124411","TIME_SYSTEM":"UTC"},{"RCS_SIZE":"LARGE","REF_FRAME":"TEME","DECAY_DATE":null,"EPOCH":"2022-09-14T20:41:47.176512","MEAN_ELEMENT_THEORY":"SGP4","FILE":"3574287","CLASSIFICATION_TYPE":"U","COUNTRY_CODE":"US","EPHEMERIS_TYPE":"0","OBJECT_NAME":"STARLINK-1475","ELEMENT_SET_NO":"999","ARG_OF_PERICENTER":"68.9753","RA_OF_ASC_NODE":"146.0685","REV_AT_EPOCH":"12505","PERIAPSIS":"546.262","GP_ID":"212610645","MEAN_MOTION_DOT":"-0.00000071","BSTAR":"0.00001415400000","MEAN_MOTION_DDOT":"0.0000000000000","INCLINATION":"53.0559","ECCENTRICITY":"0.00013880","TLE_LINE1":"1 45739U 20038K   22257.86235158 -.00000071  00000-0  14154-4 0  9995","SITE":"AFETR","MEAN_MOTION":"15.06396800","PERIOD":"95.592","CENTER_NAME":"EARTH","APOAPSIS":"548.185","OBJECT_TYPE":"PAYLOAD","NORAD_CAT_ID":"45739","LAUNCH_DATE":"2020-06-13","MEAN_ANOMALY":"291.1384","SEMIMAJOR_AXIS":"6925.358","OBJECT_ID":"2020-038K","TIME_SYSTEM":"UTC","TLE_LINE2":"2 45739  53.0559 146.0685 0001388  68.9753 291.1384 15.06396800125054"},{"OBJECT_ID":"2020-038L","SEMIMAJOR_AXIS":"6925.348","TLE_LINE2":"2 45740  53.0542 186.1118 0001321  77.3153 282.7984 15.06400088124492","TIME_SYSTEM":"UTC","OBJECT_TYPE":"PAYLOAD","NORAD_CAT_ID":"45740","LAUNCH_DATE":"2020-06-13","MEAN_ANOMALY":"282.7984","MEAN_MOTION":"15.06400088","PERIOD":"95.592","APOAPSIS":"548.128","CENTER_NAME":"EARTH","INCLINATION":"53.0542","ECCENTRICITY":"0.00013210","TLE_LINE1":"1 45740U 20038L   22257.85591775 -.00000628  00000-0 -23272-4 0  9996","SITE":"AFETR","PERIAPSIS":"546.298","GP_ID":"212609407","MEAN_MOTION_DOT":"-0.00000628","BSTAR":"-0.00002327200000","MEAN_MOTION_DDOT":"0.0000000000000","OBJECT_NAME":"STARLINK-1479","ELEMENT_SET_NO":"999","RA_OF_ASC_NODE":"186.1118","REV_AT_EPOCH":"12449","ARG_OF_PERICENTER":"77.3153","RCS_SIZE":"LARGE","DECAY_DATE":null,"REF_FRAME":"TEME","EPOCH":"2022-09-14T20:32:31.293600","MEAN_ELEMENT_THEORY":"SGP4","FILE":"3574287","CLASSIFICATION_TYPE":"U","EPHEMERIS_TYPE":"0","COUNTRY_CODE":"US"},{"SEMIMAJOR_AXIS":"6925.370","OBJECT_ID":"2020-038M","TIME_SYSTEM":"UTC","TLE_LINE2":"2 45741  53.0531 186.2359 0001241  80.6901 279.4228 15.06392988124503","OBJECT_TYPE":"PAYLOAD","NORAD_CAT_ID":"45741","LAUNCH_DATE":"2020-06-13","MEAN_ANOMALY":"279.4228","MEAN_MOTION":"15.06392988","PERIOD":"95.593","CENTER_NAME":"EARTH","APOAPSIS":"548.094","INCLINATION":"53.0531","ECCENTRICITY":"0.00012410","TLE_LINE1":"1 45741U 20038M   22257.82643578  .00000216  00000-0  33423-4 0  9993","SITE":"AFETR","GP_ID":"212609155","PERIAPSIS":"546.376","MEAN_MOTION_DOT":"0.00000216","BSTAR":"0.00003342300000","MEAN_MOTION_DDOT":"0.0000000000000","OBJECT_NAME":"STARLINK-1480","ELEMENT_SET_NO":"999","ARG_OF_PERICENTER":"80.6901","RA_OF_ASC_NODE":"186.2359","REV_AT_EPOCH":"12450","RCS_SIZE":"LARGE","REF_FRAME":"TEME","DECAY_DATE":null,"EPOCH":"2022-09-14T19:50:04.051392","MEAN_ELEMENT_THEORY":"SGP4","FILE":"3574287","CLASSIFICATION_TYPE":"U","COUNTRY_CODE":"US","EPHEMERIS_TYPE":"0"},{"RA_OF_ASC_NODE":"186.2608","ARG_OF_PERICENTER":"80.5472","REV_AT_EPOCH":"12448","OBJECT_NAME":"STARLINK-1481","ELEMENT_SET_NO":"999","CLASSIFICATION_TYPE":"U","EPHEMERIS_TYPE":"0","COUNTRY_CODE":"US","REF_FRAME":"TEME","DECAY_DATE":null,"RCS_SIZE":"LARGE","MEAN_ELEMENT_THEORY":"SGP4","FILE":"3574287","EPOCH":"2022-09-14T19:39:26.736480","ECCENTRICITY":"0.00012960","SITE":"AFETR","TLE_LINE1":"1 45742U 20038N   22257.81905945  .00002416  00000-0  18101-3 0  9991","INCLINATION":"53.0533","MEAN_MOTION_DDOT":"0.0000000000000","PERIAPSIS":"546.312","GP_ID":"212609906","BSTAR":"0.00018101000000","MEAN_MOTION_DOT":"0.00002416","MEAN_ANOMALY":"279.5664","OBJECT_TYPE":"PAYLOAD","LAUNCH_DATE":"2020-06-13","NORAD_CAT_ID":"45742","PERIOD":"95.592","MEAN_MOTION":"15.06401360","CENTER_NAME":"EARTH","APOAPSIS":"548.107","TLE_LINE2":"2 45742  53.0533 186.2608 0001296  80.5472 279.5664 15.06401360124482","TIME_SYSTEM":"UTC","SEMIMAJOR_AXIS":"6925.344","OBJECT_ID":"2020-038N"},{"SEMIMAJOR_AXIS":"6925.379","OBJECT_ID":"2020-038P","TLE_LINE2":"2 45743  53.0541 186.1249 0001648  52.6800 307.4339 15.06390043124494","TIME_SYSTEM":"UTC","LAUNCH_DATE":"2020-06-13","NORAD_CAT_ID":"45743","OBJECT_TYPE":"PAYLOAD","MEAN_ANOMALY":"307.4339","CENTER_NAME":"EARTH","APOAPSIS":"548.385","PERIOD":"95.593","MEAN_MOTION":"15.06390043","INCLINATION":"53.0541","SITE":"AFETR","TLE_LINE1":"1 45743U 20038P   22257.83654473  .00001433  00000-0  11512-3 0  9998","ECCENTRICITY":"0.00016480","BSTAR":"0.00011512000000","MEAN_MOTION_DOT":"0.00001433","GP_ID":"212610147","PERIAPSIS":"546.103","MEAN_MOTION_DDOT":"0.0000000000000","ELEMENT_SET_NO":"999","OBJECT_NAME":"STARLINK-1483","ARG_OF_PERICENTER":"52.6800","REV_AT_EPOCH":"12449","RA_OF_ASC_NODE":"186.1249","FILE":"3574287","MEAN_ELEMENT_THEORY":"SGP4","EPOCH":"2022-09-14T20:04:37.464672","REF_FRAME":"TEME","DECAY_DATE":null,"RCS_SIZE":"LARGE","COUNTRY_CODE":"US","EPHEMERIS_TYPE":"0","CLASSIFICATION_TYPE":"U"},{"MEAN_MOTION_DDOT":"0.0000000000000","MEAN_MOTION_DOT":"0.00001502","BSTAR":"0.00011974000000","PERIAPSIS":"546.175","GP_ID":"212608908","TLE_LINE1":"1 45744U 20038Q   22257.54261368  .00001502  00000-0  11974-3 0  9993","SITE":"AFETR","ECCENTRICITY":"0.00015040","INCLINATION":"53.0552","EPHEMERIS_TYPE":"0","COUNTRY_CODE":"US","CLASSIFICATION_TYPE":"U","EPOCH":"2022-09-14T13:01:21.821952","FILE":"3574287","MEAN_ELEMENT_THEORY":"SGP4","RCS_SIZE":"LARGE","DECAY_DATE":null,"REF_FRAME":"TEME","RA_OF_ASC_NODE":"187.5119","ARG_OF_PERICENTER":"79.7164","REV_AT_EPOCH":"12445","ELEMENT_SET_NO":"999","OBJECT_NAME":"STARLINK-1500","TIME_SYSTEM":"UTC","TLE_LINE2":"2 45744  53.0552 187.5119 0001504  79.7164 280.3995 15.06398936124454","SEMIMAJOR_AXIS":"6925.352","OBJECT_ID":"2020-038Q","CENTER_NAME":"EARTH","APOAPSIS":"548.258","MEAN_MOTION":"15.06398936","PERIOD":"95.592","MEAN_ANOMALY":"280.3995","NORAD_CAT_ID":"45744","LAUNCH_DATE":"2020-06-13","OBJECT_TYPE":"PAYLOAD"}];
